start=new Date('2021-08-25T00:00:00.000Z').valueOf();
sats=[{"REF_FRAME":"TEME","ARG_OF_PERICENTER":"81.7820","TLE_LINE1":"1 46701U 20073AH  21236.95053189 -.00000149  00000-0  89212-5 0  9996","MEAN_ANOMALY":"278.3398","CENTER_NAME":"EARTH","LAUNCH_DATE":"2020-10-18","EPHEMERIS_TYPE":"0","MEAN_ELEMENT_THEORY":"SGP4","REV_AT_EPOCH":"4727","RCS_SIZE":"LARGE","OBJECT_TYPE":"PAYLOAD","ECCENTRICITY":"0.00020170","BSTAR":"0.00000892120000","SITE":"AFETR","DECAY_DATE":null,"MEAN_MOTION":"15.06395714","INCLINATION":"53.0531","TIME_SYSTEM":"UTC","CLASSIFICATION_TYPE":"U","SEMIMAJOR_AXIS":"6925.362","GP_ID":"183385927","MEAN_MOTION_DOT":"-0.00000149","NORAD_CAT_ID":"46701","OBJECT_ID":"2020-073AH","FILE":"3102580","OBJECT_NAME":"STARLINK-1801","MEAN_MOTION_DDOT":"0.0000000000000","COUNTRY_CODE":"US","APOAPSIS":"548.624","TLE_LINE2":"2 46701  53.0531 123.5015 0002017  81.7820 278.3398 15.06395714 47271","PERIAPSIS":"545.830","RA_OF_ASC_NODE":"123.5015","PERIOD":"95.592","EPOCH":"2021-08-24T22:48:45.955296","ELEMENT_SET_NO":"999"},{"MEAN_ELEMENT_THEORY":"SGP4","EPHEMERIS_TYPE":"0","TLE_LINE1":"1 46702U 20073AJ  21236.89707287  .00000639  00000-0  61842-4 0  9996","ARG_OF_PERICENTER":"38.9296","REF_FRAME":"TEME","CENTER_NAME":"EARTH","LAUNCH_DATE":"2020-10-18","MEAN_ANOMALY":"321.2052","SEMIMAJOR_AXIS":"6925.337","GP_ID":"183386677","CLASSIFICATION_TYPE":"U","INCLINATION":"53.0562","TIME_SYSTEM":"UTC","FILE":"3102580","OBJECT_ID":"2020-073AJ","NORAD_CAT_ID":"46702","MEAN_MOTION_DOT":"0.00000639","SITE":"AFETR","BSTAR":"0.00006184200000","ECCENTRICITY":"0.00049900","OBJECT_TYPE":"PAYLOAD","REV_AT_EPOCH":"4754","RCS_SIZE":"LARGE","MEAN_MOTION":"15.06403663","DECAY_DATE":null,"COUNTRY_CODE":"US","MEAN_MOTION_DDOT":"0.0000000000000","OBJECT_NAME":"STARLINK-1802","ELEMENT_SET_NO":"999","PERIOD":"95.592","EPOCH":"2021-08-24T21:31:47.095968","RA_OF_ASC_NODE":"103.7366","TLE_LINE2":"2 46702  53.0562 103.7366 0004990  38.9296 321.2052 15.06403663 47546","APOAPSIS":"550.658","PERIAPSIS":"543.747"},{"EPOCH":"2021-08-24T22:16:54.794208","PERIOD":"95.592","ELEMENT_SET_NO":"999","RA_OF_ASC_NODE":"123.6056","PERIAPSIS":"545.906","TLE_LINE2":"2 46703  53.0557 123.6056 0001903  69.7268 290.3926 15.06396555 47266","APOAPSIS":"548.542","COUNTRY_CODE":"US","OBJECT_NAME":"STARLINK-1803","MEAN_MOTION_DDOT":"0.0000000000000","FILE":"3102580","OBJECT_ID":"2020-073AK","NORAD_CAT_ID":"46703","MEAN_MOTION_DOT":"0.00000893","GP_ID":"183386929","SEMIMAJOR_AXIS":"6925.359","CLASSIFICATION_TYPE":"U","TIME_SYSTEM":"UTC","INCLINATION":"53.0557","MEAN_MOTION":"15.06396555","DECAY_DATE":null,"SITE":"AFETR","BSTAR":"0.00007884500000","OBJECT_TYPE":"PAYLOAD","ECCENTRICITY":"0.00019030","RCS_SIZE":"LARGE","REV_AT_EPOCH":"4726","MEAN_ELEMENT_THEORY":"SGP4","EPHEMERIS_TYPE":"0","LAUNCH_DATE":"2020-10-18","CENTER_NAME":"EARTH","MEAN_ANOMALY":"290.3926","TLE_LINE1":"1 46703U 20073AK  21236.92841197  .00000893  00000-0  78845-4 0  9993","ARG_OF_PERICENTER":"69.7268","REF_FRAME":"TEME"},{"REF_FRAME":"TEME","ARG_OF_PERICENTER":"37.0518","TLE_LINE1":"1 46704U 20073AL  21236.90814910  .00000663  00000-0  63565-4 0  9993","MEAN_ANOMALY":"323.0900","CENTER_NAME":"EARTH","LAUNCH_DATE":"2020-10-18","EPHEMERIS_TYPE":"0","MEAN_ELEMENT_THEORY":"SGP4","REV_AT_EPOCH":"4754","RCS_SIZE":"LARGE","OBJECT_TYPE":"PAYLOAD","ECCENTRICITY":"0.00062230","BSTAR":"0.00006356500000","SITE":"AFETR","DECAY_DATE":null,"MEAN_MOTION":"15.06388768","TIME_SYSTEM":"UTC","INCLINATION":"53.0538","CLASSIFICATION_TYPE":"U","SEMIMAJOR_AXIS":"6925.383","GP_ID":"183387679","MEAN_MOTION_DOT":"0.00000663","NORAD_CAT_ID":"46704","OBJECT_ID":"2020-073AL","FILE":"3102580","OBJECT_NAME":"STARLINK-1804","MEAN_MOTION_DDOT":"0.0000000000000","COUNTRY_CODE":"US","APOAPSIS":"551.558","TLE_LINE2":"2 46704  53.0538 103.6769 0006223  37.0518 323.0900 15.06388768 47545","PERIAPSIS":"542.938","RA_OF_ASC_NODE":"103.6769","EPOCH":"2021-08-24T21:47:44.082240","PERIOD":"95.593","ELEMENT_SET_NO":"999"},{"COUNTRY_CODE":"US","MEAN_MOTION_DDOT":"0.0000000000000","OBJECT_NAME":"STARLINK-1805","PERIOD":"95.593","EPOCH":"2021-08-24T22:06:57.968064","ELEMENT_SET_NO":"999","RA_OF_ASC_NODE":"138.6277","APOAPSIS":"548.578","TLE_LINE2":"2 46705  53.0539 138.6277 0001933  70.8231 289.2967 15.06391677 47054","PERIAPSIS":"545.900","MEAN_ELEMENT_THEORY":"SGP4","EPHEMERIS_TYPE":"0","ARG_OF_PERICENTER":"70.8231","TLE_LINE1":"1 46705U 20073AM  21236.92150426  .00000818  00000-0  73864-4 0  9996","REF_FRAME":"TEME","LAUNCH_DATE":"2020-10-18","CENTER_NAME":"EARTH","MEAN_ANOMALY":"289.2967","CLASSIFICATION_TYPE":"U","GP_ID":"183386427","SEMIMAJOR_AXIS":"6925.374","INCLINATION":"53.0539","TIME_SYSTEM":"UTC","OBJECT_ID":"2020-073AM","FILE":"3102580","NORAD_CAT_ID":"46705","MEAN_MOTION_DOT":"0.00000818","BSTAR":"0.00007386400000","SITE":"AFETR","REV_AT_EPOCH":"4705","RCS_SIZE":"LARGE","OBJECT_TYPE":"PAYLOAD","ECCENTRICITY":"0.00019330","DECAY_DATE":null,"MEAN_MOTION":"15.06391677"},{"FILE":"3102580","OBJECT_ID":"2020-073AN","MEAN_MOTION_DOT":"0.00000751","NORAD_CAT_ID":"46706","SEMIMAJOR_AXIS":"6925.356","GP_ID":"183386178","CLASSIFICATION_TYPE":"U","TIME_SYSTEM":"UTC","INCLINATION":"53.0536","MEAN_MOTION":"15.06397540","DECAY_DATE":null,"SITE":"AFETR","BSTAR":"0.00006933200000","OBJECT_TYPE":"PAYLOAD","ECCENTRICITY":"0.00020680","RCS_SIZE":"LARGE","REV_AT_EPOCH":"4727","MEAN_ELEMENT_THEORY":"SGP4","EPHEMERIS_TYPE":"0","CENTER_NAME":"EARTH","LAUNCH_DATE":"2020-10-18","MEAN_ANOMALY":"289.8776","TLE_LINE1":"1 46706U 20073AN  21236.96158117  .00000751  00000-0  69332-4 0  9997","ARG_OF_PERICENTER":"70.2436","REF_FRAME":"TEME","PERIOD":"95.592","EPOCH":"2021-08-24T23:04:40.613088","ELEMENT_SET_NO":"999","RA_OF_ASC_NODE":"123.4516","PERIAPSIS":"545.789","TLE_LINE2":"2 46706  53.0536 123.4516 0002068  70.2436 289.8776 15.06397540 47274","APOAPSIS":"548.653","COUNTRY_CODE":"US","MEAN_MOTION_DDOT":"0.0000000000000","OBJECT_NAME":"STARLINK-1807"},{"ELEMENT_SET_NO":"999","PERIOD":"95.592","EPOCH":"2021-08-24T21:15:53.253792","RA_OF_ASC_NODE":"103.7977","TLE_LINE2":"2 46707  53.0554 103.7977 0007087  36.1103 324.0364 15.06395605 47540","APOAPSIS":"552.135","PERIAPSIS":"542.319","COUNTRY_CODE":"US","MEAN_MOTION_DDOT":"0.0000000000000","OBJECT_NAME":"STARLINK-1808","GP_ID":"183387429","SEMIMAJOR_AXIS":"6925.362","CLASSIFICATION_TYPE":"U","TIME_SYSTEM":"UTC","INCLINATION":"53.0554","FILE":"3102580","OBJECT_ID":"2020-073AP","NORAD_CAT_ID":"46707","MEAN_MOTION_DOT":"0.00001525","SITE":"AFETR","BSTAR":"0.00012137000000","OBJECT_TYPE":"PAYLOAD","ECCENTRICITY":"0.00070870","RCS_SIZE":"LARGE","REV_AT_EPOCH":"4754","MEAN_MOTION":"15.06395605","DECAY_DATE":null,"MEAN_ELEMENT_THEORY":"SGP4","EPHEMERIS_TYPE":"0","TLE_LINE1":"1 46707U 20073AP  21236.88603303  .00001525  00000-0  12137-3 0  9991","ARG_OF_PERICENTER":"36.1103","REF_FRAME":"TEME","CENTER_NAME":"EARTH","LAUNCH_DATE":"2020-10-18","MEAN_ANOMALY":"324.0364"},{"MEAN_MOTION_DDOT":"0.0000000000000","OBJECT_NAME":"STARLINK-1809","COUNTRY_CODE":"US","APOAPSIS":"551.732","TLE_LINE2":"2 46708  53.0548 103.7608 0006470  35.5589 324.5830 15.06387647 47541","PERIAPSIS":"542.771","EPOCH":"2021-08-24T21:21:12.226176","PERIOD":"95.593","ELEMENT_SET_NO":"999","RA_OF_ASC_NODE":"103.7608","ARG_OF_PERICENTER":"35.5589","TLE_LINE1":"1 46708U 20073AQ  21236.88972484  .00000767  00000-0  70527-4 0  9996","REF_FRAME":"TEME","LAUNCH_DATE":"2020-10-18","CENTER_NAME":"EARTH","MEAN_ANOMALY":"324.5830","MEAN_ELEMENT_THEORY":"SGP4","EPHEMERIS_TYPE":"0","BSTAR":"0.00007052700000","SITE":"AFETR","RCS_SIZE":"LARGE","REV_AT_EPOCH":"4754","OBJECT_TYPE":"PAYLOAD","ECCENTRICITY":"0.00064700","DECAY_DATE":null,"MEAN_MOTION":"15.06387647","CLASSIFICATION_TYPE":"U","GP_ID":"183387180","SEMIMAJOR_AXIS":"6925.386","INCLINATION":"53.0548","TIME_SYSTEM":"UTC","OBJECT_ID":"2020-073AQ","FILE":"3102580","MEAN_MOTION_DOT":"0.00000767","NORAD_CAT_ID":"46708"},{"FILE":"3102580","OBJECT_ID":"2020-073AR","MEAN_MOTION_DOT":"-0.00000278","NORAD_CAT_ID":"46709","SEMIMAJOR_AXIS":"6925.353","GP_ID":"183385928","CLASSIFICATION_TYPE":"U","INCLINATION":"53.0541","TIME_SYSTEM":"UTC","MEAN_MOTION":"15.06398563","DECAY_DATE":null,"SITE":"AFETR","BSTAR":"0.00000022479000","ECCENTRICITY":"0.00021030","OBJECT_TYPE":"PAYLOAD","RCS_SIZE":"LARGE","REV_AT_EPOCH":"4705","MEAN_ELEMENT_THEORY":"SGP4","EPHEMERIS_TYPE":"0","CENTER_NAME":"EARTH","LAUNCH_DATE":"2020-10-18","MEAN_ANOMALY":"293.5523","TLE_LINE1":"1 46709U 20073AR  21236.95004432 -.00000278  00000-0  22479-6 0  9997","ARG_OF_PERICENTER":"66.5687","REF_FRAME":"TEME","PERIOD":"95.592","ELEMENT_SET_NO":"999","EPOCH":"2021-08-24T22:48:03.829248","RA_OF_ASC_NODE":"138.4880","PERIAPSIS":"545.762","TLE_LINE2":"2 46709  53.0541 138.4880 0002103  66.5687 293.5523 15.06398563 47053","APOAPSIS":"548.674","COUNTRY_CODE":"US","MEAN_MOTION_DDOT":"0.0000000000000","OBJECT_NAME":"STARLINK-1810"},{"MEAN_MOTION_DDOT":"0.0000000000000","OBJECT_NAME":"STARLINK-1811","COUNTRY_CODE":"US","PERIAPSIS":"545.965","TLE_LINE2":"2 46710  53.0549 138.6698 0001815  59.8837 300.2331 15.06397399 47052","APOAPSIS":"548.478","ELEMENT_SET_NO":"999","PERIOD":"95.592","EPOCH":"2021-08-24T21:56:20.610816","RA_OF_ASC_NODE":"138.6698","CENTER_NAME":"EARTH","LAUNCH_DATE":"2020-10-18","MEAN_ANOMALY":"300.2331","TLE_LINE1":"1 46710U 20073AS  21236.91412744  .00000984  00000-0  84976-4 0  9995","ARG_OF_PERICENTER":"59.8837","REF_FRAME":"TEME","MEAN_ELEMENT_THEORY":"SGP4","EPHEMERIS_TYPE":"0","MEAN_MOTION":"15.06397399","DECAY_DATE":null,"SITE":"AFETR","BSTAR":"0.00008497600000","ECCENTRICITY":"0.00018150","OBJECT_TYPE":"PAYLOAD","REV_AT_EPOCH":"4705","RCS_SIZE":"LARGE","FILE":"3102580","OBJECT_ID":"2020-073AS","MEAN_MOTION_DOT":"0.00000984","NORAD_CAT_ID":"46710","SEMIMAJOR_AXIS":"6925.357","GP_ID":"183386678","CLASSIFICATION_TYPE":"U","INCLINATION":"53.0549","TIME_SYSTEM":"UTC"}];
